[
    {
        "Altitude(m)": 610405.3145577275,
        "Argument of Periapsis(deg)": 0.0,
        "Eccentricity": 0.0,
        "Inclination(deg)": 60.0,
        "Latitude(deg)": 52.11124819736779,
        "Longitude(deg)": -177.52243843322904,
        "Mean Anomaly(deg)": 114.54549999999999,
        "RAAN(deg)": 150.0,
        "Satellite Name": "Test1 667",
        "Satellite Number": 667,
        "Semi-Major Axis(m)": 6980739.136638005,
        "Time(s)": 0
    },
    {
        "Altitude(m)": 610321.8869625374,
        "Argument of Periapsis(deg)": 0.00010418945913296404,
        "Eccentricity": 0.0,
        "Inclination(deg)": 60.0,
        "Latitude(deg)": 51.745961666914866,
        "Longitude(deg)": -176.75354688927942,
        "Mean Anomaly(deg)": 115.16560614546184,
        "RAAN(deg)": 149.99957995086027,
        "Satellite Name": "Test1 667",
        "Satellite Number": 667,
        "Semi-Major Axis(m)": 6980739.136638005,
        "Time(s)": 10
    }
]